{
  "type": "FeatureCollection",
  "features": [
    {
      "type": "Feature",
      "properties": {
        "norad_id": 31206,
        "name": "FENGYUN 1C DEB",
        "group": "fengyun-1c-debris",
        "lat": -12.17100858332602,
        "lon": -107.46861471258556,
        "alt_km": 710.942944813839,
        "timestamp": "2025-12-08T19:31:49.089793+00:00",
        "meta_object_name": "FENGYUN 1C DEB",
        "meta_object_id": "1999-025BKL",
        "meta_epoch": "2025-12-08T04:34:58.586304",
        "meta_mean_motion": 14.40465843,
        "meta_eccentricity": 0.00781288,
        "meta_inclination": 98.8433,
        "meta_ra_of_asc_node": 249.9638,
        "meta_arg_of_pericenter": 15.2021,
        "meta_mean_anomaly": 345.1489,
        "meta_ephemeris_type": 0,
        "meta_classification_type": "U",
        "meta_norad_cat_id": 31206,
        "meta_element_set_no": 999,
        "meta_rev_at_epoch": 97780,
        "meta_bstar": 0.0011664325,
        "meta_mean_motion_dot": 3.798e-05,
        "meta_mean_motion_ddot": 0,
        "tle_line1": "1 31206U 99025BKL 25342.19095586  .00003798  00000+0  11664-2 0  9992",
        "tle_line2": "2 31206  98.8433 249.9638 0078128  15.2021 345.1489 14.40465843977801"
      },
      "geometry": {
        "type": "Point",
        "coordinates": [
          -107.46861471258556,
          -12.17100858332602
        ]
      }
    },
    {
      "type": "Feature",
      "properties": {
        "norad_id": 31208,
        "name": "FENGYUN 1C DEB",
        "group": "fengyun-1c-debris",
        "lat": -70.02486983597035,
        "lon": 152.66871205097783,
        "alt_km": 683.975708925097,
        "timestamp": "2025-12-08T19:31:49.089802+00:00",
        "meta_object_name": "FENGYUN 1C DEB",
        "meta_object_id": "1999-025BKN",
        "meta_epoch": "2025-12-07T16:00:39.049632",
        "meta_mean_motion": 14.61608831,
        "meta_eccentricity": 0.00158712,
        "meta_inclination": 99.2415,
        "meta_ra_of_asc_node": 124.7772,
        "meta_arg_of_pericenter": 281.9215,
        "meta_mean_anomaly": 95.8313,
        "meta_ephemeris_type": 0,
        "meta_classification_type": "U",
        "meta_norad_cat_id": 31208,
        "meta_element_set_no": 999,
        "meta_rev_at_epoch": 70405,
        "meta_bstar": 0.0049127356,
        "meta_mean_motion_dot": 0.00024493,
        "meta_mean_motion_ddot": 0,
        "tle_line1": "1 31208U 99025BKN 25341.66711863  .00024493  00000+0  49127-2 0  9998",
        "tle_line2": "2 31208  99.2415 124.7772 0015871 281.9215  95.8313 14.61608831704059"
      },
      "geometry": {
        "type": "Point",
        "coordinates": [
          152.66871205097783,
          -70.02486983597035
        ]
      }
    },
    {
      "type": "Feature",
      "properties": {
        "norad_id": 31209,
        "name": "FENGYUN 1C DEB",
        "group": "fengyun-1c-debris",
        "lat": 28.161864993437955,
        "lon": 72.9218667842491,
        "alt_km": 732.7336666917154,
        "timestamp": "2025-12-08T19:31:49.089811+00:00",
        "meta_object_name": "FENGYUN 1C DEB",
        "meta_object_id": "1999-025BKP",
        "meta_epoch": "2025-12-04T12:14:49.860384",
        "meta_mean_motion": 14.43258413,
        "meta_eccentricity": 0.0021369,
        "meta_inclination": 98.8853,
        "meta_ra_of_asc_node": 73.2388,
        "meta_arg_of_pericenter": 10.8344,
        "meta_mean_anomaly": 349.3301,
        "meta_ephemeris_type": 0,
        "meta_classification_type": "U",
        "meta_norad_cat_id": 31209,
        "meta_element_set_no": 999,
        "meta_rev_at_epoch": 64689,
        "meta_bstar": 0.0067448,
        "meta_mean_motion_dot": 0.00022796,
        "meta_mean_motion_ddot": 0,
        "tle_line1": "1 31209U 99025BKP 25338.51029931  .00022796  00000+0  67448-2 0  9997",
        "tle_line2": "2 31209  98.8853  73.2388 0021369  10.8344 349.3301 14.43258413646891"
      },
      "geometry": {
        "type": "Point",
        "coordinates": [
          72.9218667842491,
          28.161864993437955
        ]
      }
    },
    {
      "type": "Feature",
      "properties": {
        "norad_id": 31210,
        "name": "FENGYUN 1C DEB",
        "group": "fengyun-1c-debris",
        "lat": -24.76340272466542,
        "lon": -11.988558763169593,
        "alt_km": 870.147171865613,
        "timestamp": "2025-12-08T19:31:49.089820+00:00",
        "meta_object_name": "FENGYUN 1C DEB",
        "meta_object_id": "1999-025BKQ",
        "meta_epoch": "2025-12-08T06:21:15.081696",
        "meta_mean_motion": 14.11987853,
        "meta_eccentricity": 0.00170054,
        "meta_inclination": 98.7185,
        "meta_ra_of_asc_node": 343.4187,
        "meta_arg_of_pericenter": 167.6379,
        "meta_mean_anomaly": 258.2445,
        "meta_ephemeris_type": 0,
        "meta_classification_type": "U",
        "meta_norad_cat_id": 31210,
        "meta_element_set_no": 999,
        "meta_rev_at_epoch": 95904,
        "meta_bstar": 0.0005739086,
        "meta_mean_motion_dot": 1.009e-05,
        "meta_mean_motion_ddot": 0,
        "tle_line1": "1 31210U 99025BKQ 25342.26475789  .00001009  00000+0  57391-3 0  9993",
        "tle_line2": "2 31210  98.7185 343.4187 0017005 167.6379 258.2445 14.11987853959043"
      },
      "geometry": {
        "type": "Point",
        "coordinates": [
          -11.988558763169593,
          -24.76340272466542
        ]
      }
    },
    {
      "type": "Feature",
      "properties": {
        "norad_id": 31211,
        "name": "FENGYUN 1C DEB",
        "group": "fengyun-1c-debris",
        "lat": 9.717772212777176,
        "lon": 17.302906313585023,
        "alt_km": 826.9580120650762,
        "timestamp": "2025-12-08T19:31:49.089830+00:00",
        "meta_object_name": "FENGYUN 1C DEB",
        "meta_object_id": "1999-025BKR",
        "meta_epoch": "2025-12-06T20:08:03.397344",
        "meta_mean_motion": 14.2001942,
        "meta_eccentricity": 0.00510218,
        "meta_inclination": 98.6728,
        "meta_ra_of_asc_node": 16.8654,
        "meta_arg_of_pericenter": 106.1714,
        "meta_mean_anomaly": 254.5086,
        "meta_ephemeris_type": 0,
        "meta_classification_type": "U",
        "meta_norad_cat_id": 31211,
        "meta_element_set_no": 999,
        "meta_rev_at_epoch": 63209,
        "meta_bstar": 0.001766209,
        "meta_mean_motion_dot": 3.766e-05,
        "meta_mean_motion_ddot": 0,
        "tle_line1": "1 31211U 99025BKR 25340.83892821  .00003766  00000+0  17662-2 0  9993",
        "tle_line2": "2 31211  98.6728  16.8654 0051021 106.1714 254.5086 14.20019420632092"
      },
      "geometry": {
        "type": "Point",
        "coordinates": [
          17.302906313585023,
          9.717772212777176
        ]
      }
    },
    {
      "type": "Feature",
      "properties": {
        "norad_id": 31212,
        "name": "FENGYUN 1C DEB",
        "group": "fengyun-1c-debris",
        "lat": 79.96206478042018,
        "lon": -52.45124244808153,
        "alt_km": 846.9220656035477,
        "timestamp": "2025-12-08T19:31:49.089839+00:00",
        "meta_object_name": "FENGYUN 1C DEB",
        "meta_object_id": "1999-025BKS",
        "meta_epoch": "2025-11-25T01:25:48.692640",
        "meta_mean_motion": 14.12981607,
        "meta_eccentricity": 0.00745379,
        "meta_inclination": 99.223,
        "meta_ra_of_asc_node": 0.0078,
        "meta_arg_of_pericenter": 220.8092,
        "meta_mean_anomaly": 138.7482,
        "meta_ephemeris_type": 0,
        "meta_classification_type": "U",
        "meta_norad_cat_id": 31212,
        "meta_element_set_no": 999,
        "meta_rev_at_epoch": 95409,
        "meta_bstar": 0.0015990818,
        "meta_mean_motion_dot": 3.014e-05,
        "meta_mean_motion_ddot": 0,
        "tle_line1": "1 31212U 99025BKS 25329.05959135  .00003014  00000+0  15991-2 0  9996",
        "tle_line2": "2 31212  99.2230   0.0078 0074537 220.8092 138.7482 14.12981607954099"
      },
      "geometry": {
        "type": "Point",
        "coordinates": [
          -52.45124244808153,
          79.96206478042018
        ]
      }
    },
    {
      "type": "Feature",
      "properties": {
        "norad_id": 31215,
        "name": "FENGYUN 1C DEB",
        "group": "fengyun-1c-debris",
        "lat": 42.36989393608229,
        "lon": 15.0730263428305,
        "alt_km": 823.4240016637295,
        "timestamp": "2025-12-08T19:31:49.089848+00:00",
        "meta_object_name": "FENGYUN 1C DEB",
        "meta_object_id": "1999-025BKV",
        "meta_epoch": "2025-12-01T19:24:11.403648",
        "meta_mean_motion": 14.33696459,
        "meta_eccentricity": 0.00702274,
        "meta_inclination": 99.0744,
        "meta_ra_of_asc_node": 179.3473,
        "meta_arg_of_pericenter": 355.6358,
        "meta_mean_anomaly": 4.4204,
        "meta_ephemeris_type": 0,
        "meta_classification_type": "U",
        "meta_norad_cat_id": 31215,
        "meta_element_set_no": 999,
        "meta_rev_at_epoch": 96369,
        "meta_bstar": 0.00097709666,
        "meta_mean_motion_dot": 2.74e-05,
        "meta_mean_motion_ddot": 0,
        "tle_line1": "1 31215U 99025BKV 25335.80846532  .00002740  00000+0  97710-3 0  9990",
        "tle_line2": "2 31215  99.0744 179.3473 0070227 355.6358   4.4204 14.33696459963691"
      },
      "geometry": {
        "type": "Point",
        "coordinates": [
          15.0730263428305,
          42.36989393608229
        ]
      }
    }
  ]
}